*******************************************************************************
Ephemeris / WWW_USER Mon Mar 10 06:45:54 2025 Pasadena, USA      / Horizons    
*******************************************************************************
Target body name: (2018 TG6)                      {source: JPL#30}
Center body name: Earth (399)                     {source: DE441}
Center-site name: Mauna Kea
*******************************************************************************
Start time      : A.D. 2018-Aug-09 05:04:00.0000 UT      
Stop  time      : A.D. 2018-Aug-09 15:50:00.0000 UT      
Step-size       : 1 minutes
*******************************************************************************
Target pole/equ : undefined
Target radii    : undefined                                                    
Center geodetic : 204.5278, 19.8260847, 4.21024   {E-lon(deg),Lat(deg),Alt(km)}
Center cylindric: 204.5278, 6006.35451, 2151.0229 {E-lon(deg),Dxy(km),Dz(km)}
Center pole/equ : ITRF93                          {East-longitude positive}
Center radii    : 6378.137, 6378.137, 6356.752 km {Equator_a, b, pole_c}       
Target primary  : Sun
Vis. interferer : MOON (R_eq= 1737.400) km        {source: DE441}
Rel. light bend : Sun                             {source: DE441}
Rel. lght bnd GM: 1.3271E+11 km^3/s^2                                          
Small-body perts: Yes                             {source: SB441-N16}
Atmos refraction: NO (AIRLESS)
RA format       : HMS
Time format     : CAL 
Calendar mode   : Mixed Julian/Gregorian
RTS-only print  : NO       
EOP file        : eop.250307.p250603                                           
EOP coverage    : DATA-BASED 1962-JAN-20 TO 2025-MAR-07. PREDICTS-> 2025-JUN-02
Units conversion: 1 au= 149597870.700 km, c= 299792.458 km/s, 1 day= 86400.0 s 
Table cut-offs 1: Elevation (-90.0deg=NO ),Airmass (>38.000=NO), Daylight (YES)
Table cut-offs 2: Solar elongation (  0.0,180.0=NO ),Local Hour Angle( 0.0=NO )
Table cut-offs 3: RA/DEC angular rate (     0.0=NO )                           
*******************************************************************************
Initial IAU76/J2000 heliocentric ecliptic osculating elements (au, days, deg.):
  EPOCH=  2458431.5 ! 2018-Nov-09.00 (TDB)         Residual RMS= .2345         
   EC= .08078462401503236  QR= .9719826736009184   TP= 2458484.4320189627      
   OM= 45.37159736002829   W=  55.46172815883946   IN= 1.097814612439332       
  Equivalent ICRF heliocentric cartesian coordinates (au, au/d):
   X= 7.039692724255667E-01  Y= 6.572194580492579E-01  Z= 2.849862807208282E-01
  VX=-1.330010453008250E-02 VY= 1.042346427712734E-02 VZ= 4.885657766154543E-03
Asteroid physical parameters (km, seconds, rotational period in hours):        
   GM= n.a.                RAD= n.a.               ROTPER= n.a.                
   H= 27.25                G= .150                 B-V= n.a.                   
                           ALBEDO= n.a.            STYP= n.a.                  
*******************************************************************************
 Date__(UT)__HR:MN     R.A._________(ICRF)_________DEC
******************************************************
$$SOE
 2018-Aug-09 13:16     00 51 59.646606 -02 37 41.97745
 2018-Aug-09 13:17     00 51 59.708296 -02 37 41.76856
 2018-Aug-09 13:18     00 51 59.769972 -02 37 41.55963
 2018-Aug-09 13:19     00 51 59.831634 -02 37 41.35067
 2018-Aug-09 13:20     00 51 59.893283 -02 37 41.14167
 2018-Aug-09 13:21     00 51 59.954918 -02 37 40.93264
 2018-Aug-09 13:22     00 52 00.016540 -02 37 40.72356
 2018-Aug-09 13:23     00 52 00.078150 -02 37 40.51445
 2018-Aug-09 13:24     00 52 00.139746 -02 37 40.30531
 2018-Aug-09 13:25     00 52 00.201331 -02 37 40.09612
 2018-Aug-09 13:26     00 52 00.262904 -02 37 39.88690
 2018-Aug-09 13:27     00 52 00.324465 -02 37 39.67764
 2018-Aug-09 13:28     00 52 00.386015 -02 37 39.46835
 2018-Aug-09 13:29     00 52 00.447553 -02 37 39.25902
 2018-Aug-09 13:30     00 52 00.509081 -02 37 39.04965
 2018-Aug-09 13:31     00 52 00.570598 -02 37 38.84024
 2018-Aug-09 13:32     00 52 00.632106 -02 37 38.63080
 2018-Aug-09 13:33     00 52 00.693603 -02 37 38.42132
 2018-Aug-09 13:34     00 52 00.755090 -02 37 38.21180
 2018-Aug-09 13:35     00 52 00.816569 -02 37 38.00225
 2018-Aug-09 13:36     00 52 00.878038 -02 37 37.79265
 2018-Aug-09 13:37     00 52 00.939498 -02 37 37.58302
 2018-Aug-09 13:38     00 52 01.000950 -02 37 37.37336
 2018-Aug-09 13:39     00 52 01.062394 -02 37 37.16365
 2018-Aug-09 13:40     00 52 01.123830 -02 37 36.95391
 2018-Aug-09 13:41     00 52 01.185258 -02 37 36.74413
 2018-Aug-09 13:42     00 52 01.246679 -02 37 36.53432
 2018-Aug-09 13:43     00 52 01.308092 -02 37 36.32446
 2018-Aug-09 13:44     00 52 01.369500 -02 37 36.11457
 2018-Aug-09 13:45     00 52 01.430900 -02 37 35.90464
 2018-Aug-09 13:46     00 52 01.492295 -02 37 35.69468
 2018-Aug-09 13:47     00 52 01.553683 -02 37 35.48467
 2018-Aug-09 13:48     00 52 01.615066 -02 37 35.27463
 2018-Aug-09 13:49     00 52 01.676444 -02 37 35.06455
 2018-Aug-09 13:50     00 52 01.737817 -02 37 34.85444
 2018-Aug-09 13:51     00 52 01.799185 -02 37 34.64429
 2018-Aug-09 13:52     00 52 01.860548 -02 37 34.43409
 2018-Aug-09 13:53     00 52 01.921907 -02 37 34.22387
 2018-Aug-09 13:54     00 52 01.983263 -02 37 34.01360
 2018-Aug-09 13:55     00 52 02.044615 -02 37 33.80330
 2018-Aug-09 13:56     00 52 02.105964 -02 37 33.59296
 2018-Aug-09 13:57     00 52 02.167309 -02 37 33.38258
 2018-Aug-09 13:58     00 52 02.228652 -02 37 33.17216
 2018-Aug-09 13:59     00 52 02.289993 -02 37 32.96171
 2018-Aug-09 14:00     00 52 02.351332 -02 37 32.75122
 2018-Aug-09 14:01  m  00 52 02.412668 -02 37 32.54069
 2018-Aug-09 14:02  m  00 52 02.474003 -02 37 32.33012
 2018-Aug-09 14:03  t  00 52 02.535337 -02 37 32.11952
 2018-Aug-09 14:04  m  00 52 02.596670 -02 37 31.90887
 2018-Aug-09 14:05  m  00 52 02.658003 -02 37 31.69820
 2018-Aug-09 14:06  m  00 52 02.719335 -02 37 31.48748
 2018-Aug-09 14:07  m  00 52 02.780667 -02 37 31.27672
 2018-Aug-09 14:08  m  00 52 02.841999 -02 37 31.06593
 2018-Aug-09 14:09  m  00 52 02.903331 -02 37 30.85510
 2018-Aug-09 14:10  m  00 52 02.964665 -02 37 30.64424
 2018-Aug-09 14:11  m  00 52 03.025999 -02 37 30.43333
 2018-Aug-09 14:12  m  00 52 03.087335 -02 37 30.22239
 2018-Aug-09 14:13  m  00 52 03.148673 -02 37 30.01141
 2018-Aug-09 14:14  m  00 52 03.210012 -02 37 29.80039
 2018-Aug-09 14:15  m  00 52 03.271354 -02 37 29.58934
 2018-Aug-09 14:16  m  00 52 03.332698 -02 37 29.37824
 2018-Aug-09 14:17  m  00 52 03.394046 -02 37 29.16711
 2018-Aug-09 14:18  m  00 52 03.455396 -02 37 28.95595
 2018-Aug-09 14:19  m  00 52 03.516750 -02 37 28.74474
 2018-Aug-09 14:20  m  00 52 03.578107 -02 37 28.53350
 2018-Aug-09 14:21  m  00 52 03.639468 -02 37 28.32222
 2018-Aug-09 14:22  m  00 52 03.700834 -02 37 28.11090
 2018-Aug-09 14:23  m  00 52 03.762204 -02 37 27.89955
 2018-Aug-09 14:24  m  00 52 03.823579 -02 37 27.68815
 2018-Aug-09 14:25  m  00 52 03.884960 -02 37 27.47672
 2018-Aug-09 14:26  m  00 52 03.946345 -02 37 27.26526
 2018-Aug-09 14:27  m  00 52 04.007737 -02 37 27.05375
 2018-Aug-09 14:28  m  00 52 04.069134 -02 37 26.84221
 2018-Aug-09 14:29  m  00 52 04.130538 -02 37 26.63063
 2018-Aug-09 14:30  m  00 52 04.191948 -02 37 26.41902
 2018-Aug-09 14:31  m  00 52 04.253366 -02 37 26.20736
 2018-Aug-09 14:32  m  00 52 04.314790 -02 37 25.99567
 2018-Aug-09 14:33  m  00 52 04.376222 -02 37 25.78394
 2018-Aug-09 14:34  m  00 52 04.437662 -02 37 25.57218
 2018-Aug-09 14:35  m  00 52 04.499109 -02 37 25.36038
 2018-Aug-09 14:36  m  00 52 04.560565 -02 37 25.14854
 2018-Aug-09 14:37  m  00 52 04.622030 -02 37 24.93666
 2018-Aug-09 14:38  m  00 52 04.683504 -02 37 24.72474
 2018-Aug-09 14:39  m  00 52 04.744986 -02 37 24.51279
 2018-Aug-09 14:40  m  00 52 04.806479 -02 37 24.30081
 2018-Aug-09 14:41  m  00 52 04.867981 -02 37 24.08878
 2018-Aug-09 14:42  m  00 52 04.929493 -02 37 23.87672
 2018-Aug-09 14:43 Am  00 52 04.991015 -02 37 23.66462
 2018-Aug-09 14:44 Am  00 52 05.052548 -02 37 23.45248
 2018-Aug-09 14:45 Am  00 52 05.114092 -02 37 23.24031
 2018-Aug-09 14:46 Am  00 52 05.175647 -02 37 23.02810
 2018-Aug-09 14:47 Am  00 52 05.237214 -02 37 22.81585
 2018-Aug-09 14:48 Am  00 52 05.298793 -02 37 22.60357
 2018-Aug-09 14:49 Am  00 52 05.360383 -02 37 22.39125
 2018-Aug-09 14:50 Am  00 52 05.421986 -02 37 22.17889
 2018-Aug-09 14:51 Am  00 52 05.483601 -02 37 21.96650
 2018-Aug-09 14:52 Am  00 52 05.545230 -02 37 21.75407
 2018-Aug-09 14:53 Am  00 52 05.606871 -02 37 21.54160
 2018-Aug-09 14:54 Am  00 52 05.668526 -02 37 21.32910
 2018-Aug-09 14:55 Am  00 52 05.730195 -02 37 21.11656
 2018-Aug-09 14:56 Am  00 52 05.791878 -02 37 20.90399
 2018-Aug-09 14:57 Am  00 52 05.853576 -02 37 20.69137
 2018-Aug-09 14:58 Am  00 52 05.915287 -02 37 20.47872
 2018-Aug-09 14:59 Am  00 52 05.977014 -02 37 20.26604
 2018-Aug-09 15:00 Am  00 52 06.038756 -02 37 20.05332
 2018-Aug-09 15:01 Am  00 52 06.100514 -02 37 19.84056
 2018-Aug-09 15:02 Am  00 52 06.162287 -02 37 19.62777
 2018-Aug-09 15:03 Am  00 52 06.224076 -02 37 19.41493
 2018-Aug-09 15:04 Am  00 52 06.285882 -02 37 19.20207
 2018-Aug-09 15:05 Am  00 52 06.347704 -02 37 18.98917
 2018-Aug-09 15:06 Am  00 52 06.409543 -02 37 18.77623
 2018-Aug-09 15:07 Am  00 52 06.471399 -02 37 18.56325
 2018-Aug-09 15:08 Am  00 52 06.533273 -02 37 18.35024
 2018-Aug-09 15:09 Am  00 52 06.595164 -02 37 18.13720
 2018-Aug-09 15:10 Am  00 52 06.657073 -02 37 17.92412
 2018-Aug-09 15:11 Nm  00 52 06.719001 -02 37 17.71100
 2018-Aug-09 15:12 Nm  00 52 06.780947 -02 37 17.49785
 2018-Aug-09 15:13 Nm  00 52 06.842912 -02 37 17.28466
 2018-Aug-09 15:14 Nm  00 52 06.904896 -02 37 17.07143
 2018-Aug-09 15:15 Nm  00 52 06.966900 -02 37 16.85817
 2018-Aug-09 15:16 Nm  00 52 07.028923 -02 37 16.64488
 2018-Aug-09 15:17 Nm  00 52 07.090966 -02 37 16.43155
 2018-Aug-09 15:18 Nm  00 52 07.153030 -02 37 16.21818
